SITRO-AIS 12 (SMIRENNIY)
1 57204U 23091AQ  26192.52061873  .00011867  00000+0  30613-3 0  9993
2 57204  97.5087 263.8513 0004982 349.9858  10.1287 15.39317442168512
SITRO-AIS 11 (SHEFFER)  
1 57208U 23091AU  26192.46220477  .00012302  00000+0  31274-3 0  9996
2 57208  97.5085 264.0536 0004881 349.6162  10.4982 15.39758023168525
H2SAT (HEINRICH HERTZ)  
1 57213U 23093A   26192.36225226  .00000008  00000+0  00000+0 0  9999
2 57213   0.0138  97.5985 0000365  46.0458 276.7423  1.00269979 11158
KUZGTU 1 (RS47S)        
1 57217U 23091AV  26192.49207124  .00006835  00000+0  23467-3 0  9992
2 57217  97.5058 257.2264 0010478  19.3903 340.7734 15.30416432168092
QIANKUN-1               
1 57422U 23103B   26190.51657901  .00014836  17439-5  17457-4 0  9990
2 57422  96.1478 233.7894 0036275 139.5319 220.8675 16.07683835170888
FENGYUN 3F              
1 57490U 23111A   26192.49610372  .00000005  00000+0  22941-4 0  9991
2 57490  98.6827 262.0508 0001344  78.1023 282.0304 14.19943035152313
HJ-2F                   
1 57519U 23116A   26192.50454207  .00004432  00000+0  19329-3 0  9996
2 57519  97.3846 197.3048 0006949 328.4610  31.6209 15.22662315162452
XRISM                   
1 57800U 23137A   26192.40914272  .00002256  00000+0  12034-3 0  9992
2 57800  31.0007 202.6776 0007838 208.6647 151.3561 15.12653502156534
METEOR-M2 4             
1 59051U 24039A   26192.52175299 -.00000014  00000+0  13383-4 0  9995
2 59051  98.7023 151.5156 0008236  97.9187 262.2926 14.22431942122720
GRBBETA                 
1 60237U 24128C   26192.31053904  .00002233  00000+0  16151-3 0  9996
2 60237  61.9892 131.6189 0037525 139.8192 220.5686 15.06792341109905
TRANSPORTER-11 OBJECT A 
1 60468U 24149A   26192.17267214  .00005426  00000+0  17107-3 0  9999
2 60468  97.3730 272.0325 0004749 126.5666 233.6014 15.33297885105738
WARATAH SEED-1          
1 60469U 24149B   26192.47190920  .00008189  00000+0  23176-3 0  9994
2 60469  97.3687 273.0776 0003084 127.8541 232.2983 15.36557209105842
PHISAT 2                
1 60470U 24149C   26190.20098502  .00004732  00000+0  15878-3 0  9998
2 60470  97.3750 269.2980 0002890 133.4562 226.6921 15.31364030105368
LEMUR-2-TOMATOKECHUP    
1 60471U 24149D   26192.53274769  .00006494  00000+0  18442-3 0  9995
2 60471  97.3802 274.6484 0003130 128.8617 231.2907 15.36533766105908
CONNECTA IOT-1          
1 60472U 24149E   26191.67313595  .00002670  00000+0  11410-3 0  9991
2 60472  97.3754 267.5692 0002429 152.0524 208.0844 15.23720794105371
LOPEN                   
1 60473U 24149F   26192.04155505  .00009856  00000+0  24599-3 0  9994
2 60473  97.3775 275.6056 0002615 140.7290 219.4147 15.40382665105934
ROCK                    
1 60474U 24149G   26189.75456404  .00011046  00000+0  27596-3 0  9995
2 60474  97.3767 273.3139 0002736 144.4938 215.6491 15.40321242105582
CONNECTA IOT-3          
1 60475U 24149H   26191.16895471  .00002870  00000+0  12237-3 0  9996
2 60475  97.3727 266.8195 0003505 155.4468 204.6937 15.23731231105300
QUBE                    
1 60476U 24149J   26192.48225375  .00016409  00000+0  31134-3 0  9993
2 60476  97.3768 279.4033 0003329 137.7119 222.4389 15.48382728106228
WREN-1                  
1 60478U 24149L   26191.17129090  .00016702  00000+0  38701-3 0  9990
2 60478  97.3761 275.5386 0005059 166.2884 193.8501 15.42489784105869
TOMORROW-S1             
1 60479U 24149M   26191.17983622  .00005297  00000+0  16838-3 0  9994
2 60479  97.3745 271.5833 0003726 142.2101 217.9404 15.33047112105618
FLOCK 4BE-18            
1 60480U 24149N   26191.17932148  .00010476  00000+0  24256-3 0  9991
2 60480  97.3723 275.1601 0004809 158.3301 201.8151 15.42627981105857
FLOCK 4BE-7             
1 60481U 24149P   26192.18214375  .00014704  00000+0  35433-3 0  9996
2 60481  97.3757 275.4708 0004099 159.0546 201.0870 15.41340214105946
TOMORROW-S2             
1 60485U 24149T   26189.77383058  .00005511  00000+0  17493-3 0  9998
2 60485  97.3813 270.6915 0003294 165.0151 195.1189 15.33077157105394
FLOCK 4BE-36            
1 60486U 24149U   26189.77694602  .00012409  00000+0  27967-3 0  9990
2 60486  97.3738 274.4730 0004291 170.3083 189.8249 15.43394438105683
FLOCK 4BE-25            
1 60487U 24149V   26192.53275987  .00008519  00000+0  21931-3 0  9992
2 60487  97.3798 275.8574 0003486 150.4404 209.7040 15.39477501105984
FLOCK 4BE-31            
1 60488U 24149W   26190.04645690  .00015235  00000+0  32503-3 0  9999
2 60488  97.3793 275.6689 0003379 166.3128 193.8213 15.44977948105751
FLOCK 4BE-20            
1 60489U 24149X   26191.53268010  .00009644  00000+0  25405-3 0  9992
2 60489  97.3694 273.6700 0004628 165.1738 194.9644 15.38726180105805
